[{"OBJECT_NAME":"TIANMU-1 07","OBJECT_ID":"2023-101A","EPOCH":"2026-03-06T13:47:20.454720","MEAN_MOTION":15.29118809,"ECCENTRICITY":0.00046097,"INCLINATION":97.2728,"RA_OF_ASC_NODE":118.5929,"ARG_OF_PERICENTER":142.4105,"MEAN_ANOMALY":217.7458,"EPHEMERIS_TYPE":0,"CLASSIFICATION_TYPE":"U","NORAD_CAT_ID":57399,"ELEMENT_SET_NO":999,"REV_AT_EPOCH":14596,"BSTAR":0.00029794732,"MEAN_MOTION_DOT":8.352e-5,"MEAN_MOTION_DDOT":0},{"OBJECT_NAME":"STARLINK-36545","OBJECT_ID":"2026-012N","EPOCH":"2026-03-09T02:08:59.273952","MEAN_MOTION":15.27585194,"ECCENTRICITY":0.00024901,"INCLINATION":43.006,"RA_OF_ASC_NODE":317.475,"ARG_OF_PERICENTER":266.3239,"MEAN_ANOMALY":93.7328,"EPHEMERIS_TYPE":0,"CLASSIFICATION_TYPE":"U","NORAD_CAT_ID":67505,"ELEMENT_SET_NO":999,"REV_AT_EPOCH":767,"BSTAR":0.0007848828,"MEAN_MOTION_DOT":0.00021403,"MEAN_MOTION_DDOT":0}]
